[{"OBJECT_NAME":"LYNK TOWER 4","OBJECT_ID":"2023-001AB","EPOCH":"2026-03-09T16:15:30.644928","MEAN_MOTION":15.31819885,"ECCENTRICITY":0.00103213,"INCLINATION":97.3324,"RA_OF_ASC_NODE":128.594,"ARG_OF_PERICENTER":112.3386,"MEAN_ANOMALY":247.895,"EPHEMERIS_TYPE":0,"CLASSIFICATION_TYPE":"U","NORAD_CAT_ID":55034,"ELEMENT_SET_NO":999,"REV_AT_EPOCH":17658,"BSTAR":0.00030013829,"MEAN_MOTION_DOT":9.16e-5,"MEAN_MOTION_DDOT":0},{"OBJECT_NAME":"OBJECT S","OBJECT_ID":"2024-199S","EPOCH":"2026-03-09T22:22:49.887840","MEAN_MOTION":15.3495177,"ECCENTRICITY":0.00086914,"INCLINATION":97.3152,"RA_OF_ASC_NODE":299.1504,"ARG_OF_PERICENTER":310.0662,"MEAN_ANOMALY":49.9819,"EPHEMERIS_TYPE":0,"CLASSIFICATION_TYPE":"U","NORAD_CAT_ID":61751,"ELEMENT_SET_NO":999,"REV_AT_EPOCH":12190,"BSTAR":0.00036395153,"MEAN_MOTION_DOT":0.00012279,"MEAN_MOTION_DDOT":0}]
